{"type": "FeatureCollection", "features": [ {"type": "Feature", "properties": {"norad_id": 33870, "name": "IRIDIUM 33 DEB", "group": "iridium-33-debris", "lat": 51.10083125282866, "lon": -132.43210470335902, "alt_km": 718.2082731576402, "timestamp": "2025-12-27T03:58:44.532151+00:00", "meta": {"OBJECT_NAME": "IRIDIUM 33 DEB", "OBJECT_ID": "1997-051AP", "EPOCH": "2025-12-26T14:47:54.488832", "MEAN_MOTION": 14.45919153, "ECCENTRICITY": 0.0022756, "INCLINATION": 86.3733, "RA_OF_ASC_NODE": 52.3117, "ARG_OF_PERICENTER": 134.2343, "MEAN_ANOMALY": 17.5876, "EPHEMERIS_TYPE": 0, "CLASSIFICATION_TYPE": "U", "NORAD_CAT_ID": 33870, "ELEMENT_SET_NO": 999, "REV_AT_EPOCH": 88337, "BSTAR": 0.00069882, "MEAN_MOTION_DOT": 2.511e-05, "MEAN_MOTION_DDOT": 0}, "tle": {"line1": "1 33870U 97051AP  25360.61660288  .00002511  00000+0  69882-3 0  9990", "line2": "2 33870  86.3733  52.3117 0022756 134.2343  17.5876 14.45919153883379"}}, "geometry": {"type": "Point", "coordinates": [-132.43210470335902, 51.10083125282866]}}, {"type": "Feature", "properties": {"norad_id": 33881, "name": "IRIDIUM 33 DEB", "group": "iridium-33-debris", "lat": -18.507060922214226, "lon": -78.31565772022893, "alt_km": 693.8876859153761, "timestamp": "2025-12-27T03:58:44.532167+00:00", "meta": {"OBJECT_NAME": "IRIDIUM 33 DEB", "OBJECT_ID": "1997-051BA", "EPOCH": "2025-12-26T19:24:14.995296", "MEAN_MOTION": 14.56833072, "ECCENTRICITY": 0.0061049, "INCLINATION": 86.3854, "RA_OF_ASC_NODE": 100.6273, "ARG_OF_PERICENTER": 129.1148, "MEAN_ANOMALY": 356.0347, "EPHEMERIS_TYPE": 0, "CLASSIFICATION_TYPE": "U", "NORAD_CAT_ID": 33881, "ELEMENT_SET_NO": 999, "REV_AT_EPOCH": 87705, "BSTAR": 0.0021985, "MEAN_MOTION_DOT": 0.00010127, "MEAN_MOTION_DDOT": 0}, "tle": {"line1": "1 33881U 97051BA  25360.80850689  .00010127  00000+0  21985-2 0  9992", "line2": "2 33881  86.3854 100.6273 0061049 129.1148 356.0347 14.56833072877058"}}, "geometry": {"type": "Point", "coordinates": [-78.31565772022893, -18.507060922214226]}}, {"type": "Feature", "properties": {"norad_id": 33884, "name": "IRIDIUM 33 DEB", "group": "iridium-33-debris", "lat": 33.3785877650527, "lon": -179.0905230587443, "alt_km": 637.7654793616766, "timestamp": "2025-12-27T03:58:44.532181+00:00", "meta": {"OBJECT_NAME": "IRIDIUM 33 DEB", "OBJECT_ID": "1997-051BD", "EPOCH": "2025-12-26T11:45:10.238112", "MEAN_MOTION": 14.77706795, "ECCENTRICITY": 0.0008805, "INCLINATION": 86.3712, "RA_OF_ASC_NODE": 3.6109, "ARG_OF_PERICENTER": 269.9643, "MEAN_ANOMALY": 242.2854, "EPHEMERIS_TYPE": 0, "CLASSIFICATION_TYPE": "U", "NORAD_CAT_ID": 33884, "ELEMENT_SET_NO": 999, "REV_AT_EPOCH": 89050, "BSTAR": 0.0015056, "MEAN_MOTION_DOT": 0.00010823, "MEAN_MOTION_DDOT": 0}, "tle": {"line1": "1 33884U 97051BD  25360.48970183  .00010823  00000+0  15056-2 0  9996", "line2": "2 33884  86.3712   3.6109 0008805 269.9643 242.2854 14.77706795890506"}}, "geometry": {"type": "Point", "coordinates": [-179.0905230587443, 33.3785877650527]}}, {"type": "Feature", "properties": {"norad_id": 33886, "name": "IRIDIUM 33 DEB", "group": "iridium-33-debris", "lat": 78.98557285006164, "lon": 80.12612900295946, "alt_km": 767.8073093922212, "timestamp": "2025-12-27T03:58:44.532191+00:00", "meta": {"OBJECT_NAME": "IRIDIUM 33 DEB", "OBJECT_ID": "1997-051BF", "EPOCH": "2025-12-26T14:45:54.639072", "MEAN_MOTION": 14.36067742, "ECCENTRICITY": 0.0013658, "INCLINATION": 86.3819, "RA_OF_ASC_NODE": 61.3879, "ARG_OF_PERICENTER": 192.7494, "MEAN_ANOMALY": 282.4081, "EPHEMERIS_TYPE": 0, "CLASSIFICATION_TYPE": "U", "NORAD_CAT_ID": 33886, "ELEMENT_SET_NO": 999, "REV_AT_EPOCH": 88251, "BSTAR": 0.00019455, "MEAN_MOTION_DOT": 5.86e-06, "MEAN_MOTION_DDOT": 0}, "tle": {"line1": "1 33886U 97051BF  25360.61521573  .00000586  00000+0  19455-3 0  9991", "line2": "2 33886  86.3819  61.3879 0013658 192.7494 282.4081 14.36067742882517"}}, "geometry": {"type": "Point", "coordinates": [80.12612900295946, 78.98557285006164]}}, {"type": "Feature", "properties": {"norad_id": 33887, "name": "IRIDIUM 33 DEB", "group": "iridium-33-debris", "lat": 75.99135189874652, "lon": 12.189278957470089, "alt_km": 761.0122401551798, "timestamp": "2025-12-27T03:58:44.532201+00:00", "meta": {"OBJECT_NAME": "IRIDIUM 33 DEB", "OBJECT_ID": "1997-051BG", "EPOCH": "2025-12-26T01:09:55.785312", "MEAN_MOTION": 14.37232581, "ECCENTRICITY": 0.00058983, "INCLINATION": 86.3044, "RA_OF_ASC_NODE": 357.6564, "ARG_OF_PERICENTER": 176.4648, "MEAN_ANOMALY": 243.1701, "EPHEMERIS_TYPE": 0, "CLASSIFICATION_TYPE": "U", "NORAD_CAT_ID": 33887, "ELEMENT_SET_NO": 999, "REV_AT_EPOCH": 88356, "BSTAR": 0.00014545145, "MEAN_MOTION_DOT": 4.53e-06, "MEAN_MOTION_DDOT": 0}, "tle": {"line1": "1 33887U 97051BG  25360.04856233  .00000453  00000+0  14545-3 0  9991", "line2": "2 33887  86.3044 357.6564 0005898 176.4648 243.1701 14.37232581883562"}}, "geometry": {"type": "Point", "coordinates": [12.189278957470089, 75.99135189874652]}}, {"type": "Feature", "properties": {"norad_id": 33953, "name": "IRIDIUM 33 DEB", "group": "iridium-33-debris", "lat": 25.68990532189587, "lon": -134.22678014961403, "alt_km": 708.3774016098541, "timestamp": "2025-12-27T03:58:44.532211+00:00", "meta": {"OBJECT_NAME": "IRIDIUM 33 DEB", "OBJECT_ID": "1997-051BN", "EPOCH": "2025-12-26T14:46:02.739936", "MEAN_MOTION": 14.55451821, "ECCENTRICITY": 0.0017451, "INCLINATION": 86.3834, "RA_OF_ASC_NODE": 47.7557, "ARG_OF_PERICENTER": 60.1468, "MEAN_ANOMALY": 91.3298, "EPHEMERIS_TYPE": 0, "CLASSIFICATION_TYPE": "U", "NORAD_CAT_ID": 33953, "ELEMENT_SET_NO": 999, "REV_AT_EPOCH": 88505, "BSTAR": 0.0011159, "MEAN_MOTION_DOT": 4.881e-05, "MEAN_MOTION_DDOT": 0}, "tle": {"line1": "1 33953U 97051BN  25360.61530949  .00004881  00000+0  11159-2 0  9997", "line2": "2 33953  86.3834  47.7557 0017451  60.1468  91.3298 14.55451821885059"}}, "geometry": {"type": "Point", "coordinates": [-134.22678014961403, 25.68990532189587]}}, {"type": "Feature", "properties": {"norad_id": 33960, "name": "IRIDIUM 33 DEB", "group": "iridium-33-debris", "lat": 81.27558114473308, "lon": -52.01319081513213, "alt_km": 599.9288920042263, "timestamp": "2025-12-27T03:58:44.532221+00:00", "meta": {"OBJECT_NAME": "IRIDIUM 33 DEB", "OBJECT_ID": "1997-051BV", "EPOCH": "2025-12-26T19:47:13.318080", "MEAN_MOTION": 14.85911573, "ECCENTRICITY": 0.0006959, "INCLINATION": 86.2536, "RA_OF_ASC_NODE": 282.8713, "ARG_OF_PERICENTER": 37.5065, "MEAN_ANOMALY": 19.8748, "EPHEMERIS_TYPE": 0, "CLASSIFICATION_TYPE": "U", "NORAD_CAT_ID": 33960, "ELEMENT_SET_NO": 999, "REV_AT_EPOCH": 89076, "BSTAR": 0.0032209, "MEAN_MOTION_DOT": 0.00028197, "MEAN_MOTION_DDOT": 0}, "tle": {"line1": "1 33960U 97051BV  25360.82445970  .00028197  00000+0  32209-2 0  9992", "line2": "2 33960  86.2536 282.8713 0006959  37.5065  19.8748 14.85911573890760"}}, "geometry": {"type": "Point", "coordinates": [-52.01319081513213, 81.27558114473308]}}, {"type": "Feature", "properties": {"norad_id": 33966, "name": "IRIDIUM 33 DEB", "group": "iridium-33-debris", "lat": -19.296893976213703, "lon": 38.56887440218785, "alt_km": 738.038845359918, "timestamp": "2025-12-27T03:58:44.532231+00:00", "meta": {"OBJECT_NAME": "IRIDIUM 33 DEB", "OBJECT_ID": "1997-051CB", "EPOCH": "2025-12-26T15:23:33.736416", "MEAN_MOTION": 14.49646818, "ECCENTRICITY": 0.0008881, "INCLINATION": 86.391, "RA_OF_ASC_NODE": 40.0602, "ARG_OF_PERICENTER": 145.5538, "MEAN_ANOMALY": 340.1487, "EPHEMERIS_TYPE": 0, "CLASSIFICATION_TYPE": "U", "NORAD_CAT_ID": 33966, "ELEMENT_SET_NO": 999, "REV_AT_EPOCH": 88643, "BSTAR": 0.00051075, "MEAN_MOTION_DOT": 1.983e-05, "MEAN_MOTION_DDOT": 0}, "tle": {"line1": "1 33966U 97051CB  25360.64136269  .00001983  00000+0  51075-3 0  9993", "line2": "2 33966  86.3910  40.0602 0008881 145.5538 340.1487 14.49646818886431"}}, "geometry": {"type": "Point", "coordinates": [38.56887440218785, -19.296893976213703]}}, {"type": "Feature", "properties": {"norad_id": 34071, "name": "IRIDIUM 33 DEB", "group": "iridium-33-debris", "lat": 40.45442334876087, "lon": 14.681151132056321, "alt_km": 717.9534378675944, "timestamp": "2025-12-27T03:58:44.532241+00:00", "meta": {"OBJECT_NAME": "IRIDIUM 33 DEB", "OBJECT_ID": "1997-051CE", "EPOCH": "2025-12-26T17:51:07.795008", "MEAN_MOTION": 14.49526568, "ECCENTRICITY": 0.0009804, "INCLINATION": 86.3453, "RA_OF_ASC_NODE": 11.7403, "ARG_OF_PERICENTER": 70.1047, "MEAN_ANOMALY": 290.1213, "EPHEMERIS_TYPE": 0, "CLASSIFICATION_TYPE": "U", "NORAD_CAT_ID": 34071, "ELEMENT_SET_NO": 999, "REV_AT_EPOCH": 88537, "BSTAR": 0.00064162, "MEAN_MOTION_DOT": 2.48e-05, "MEAN_MOTION_DDOT": 0}, "tle": {"line1": "1 34071U 97051CE  25360.74384022  .00002480  00000+0  64162-3 0  9998", "line2": "2 34071  86.3453  11.7403 0009804  70.1047 290.1213 14.49526568885371"}}, "geometry": {"type": "Point", "coordinates": [14.681151132056321, 40.45442334876087]}}, {"type": "Feature", "properties": {"norad_id": 34077, "name": "IRIDIUM 33 DEB", "group": "iridium-33-debris", "lat": -37.16117861264517, "lon": 42.40431675879351, "alt_km": 678.1564711560432, "timestamp": "2025-12-27T03:58:44.532251+00:00", "meta": {"OBJECT_NAME": "IRIDIUM 33 DEB", "OBJECT_ID": "1997-051CL", "EPOCH": "2025-12-26T15:37:29.746272", "MEAN_MOTION": 14.65017306, "ECCENTRICITY": 0.0008586, "INCLINATION": 86.3849, "RA_OF_ASC_NODE": 45.3778, "ARG_OF_PERICENTER": 353.3839, "MEAN_ANOMALY": 136.4278, "EPHEMERIS_TYPE": 0, "CLASSIFICATION_TYPE": "U", "NORAD_CAT_ID": 34077, "ELEMENT_SET_NO": 999, "REV_AT_EPOCH": 88536, "BSTAR": 0.0015938, "MEAN_MOTION_DOT": 8.57e-05, "MEAN_MOTION_DDOT": 0}, "tle": {"line1": "1 34077U 97051CL  25360.65103873  .00008570  00000+0  15938-2 0  9999", "line2": "2 34077  86.3849  45.3778 0008586 353.3839 136.4278 14.65017306885360"}}, "geometry": {"type": "Point", "coordinates": [42.40431675879351, -37.16117861264517]}}]}